IRIDIUM 63              
1 25286U 98021B   25090.79024649  .00000743  00000+0  24675-3 0  9990
2 25286  86.3938 114.6133 0002347  94.9343 265.2122 14.36454402412739
IRIDIUM 69              
1 25319U 98026A   25090.83149802  .00000875  00000+0  26708-3 0  9991
2 25319  86.3958 128.1192 0000288  10.3126 349.8080 14.40861469411928
IRIDIUM 71              
1 25320U 98026B   25090.84878363  .00000717  00000+0  21666-3 0  9998
2 25320  86.3945 122.8167 0002580  40.2995 319.8395 14.41062421412459
IRIDIUM 73              
1 25344U 98032C   25090.72128578  .00001418  00000+0  34934-3 0  9995
2 25344  86.4364  79.7186 0001747  92.1242 268.0164 14.51564616419323
IRIDIUM 82              
1 25467U 98051A   25090.66241705  .00030932  00000+0  10057-2 0  9995
2 25467  86.3699 147.7256 0092059 228.7494 130.5798 15.27648267412109
